API VERSION: 1.2
API SOURCE: NASA/JPL Horizons API



*******************************************************************************
Ephemeris / API_USER Sun Jul 12 00:03:40 2026 Pasadena, USA      / Horizons
*******************************************************************************
Target body name: Mars (499)                      {source: mar099}
Center body name: Sun (10)                        {source: DE441}
Center-site name: BODY CENTER
*******************************************************************************
Start time      : A.D. 2023-Jan-01 00:00:00.0000 TDB
Stop  time      : A.D. 2025-Jan-01 00:00:00.0000 TDB
Step-size       : 2880 minutes
*******************************************************************************
Center geodetic : 0.0, 0.0, 0.0                   {E-lon(deg),Lat(deg),Alt(km)}
Center cylindric: 0.0, 0.0, 0.0                   {E-lon(deg),Dxy(km),Dz(km)}
Center radii    : 695700.0, 695700.0, 695700.0 km {Equator_a, b, pole_c}
Output units    : AU-D
Calendar mode   : Mixed Julian/Gregorian
Output type     : GEOMETRIC cartesian states
Output format   : 2 (position and velocity)
Reference frame : Ecliptic of J2000.0
*******************************************************************************
JDTDB
   X     Y     Z
   VX    VY    VZ
*******************************************************************************
$$SOE
2460025.500000000 = A.D. 2023-Mar-22 00:00:00.0000 TDB 
 X =-9.491048009083057E-01 Y = 1.339054936095072E+00 Z = 5.134517617854253E-02
 VX=-1.088796104890818E-02 VY=-6.901313949676244E-03 VZ= 1.224387436257297E-04
2460027.500000000 = A.D. 2023-Mar-24 00:00:00.0000 TDB 
 X =-9.707530075183519E-01 Y = 1.325074086058463E+00 Z = 5.158318576963495E-02
 VX=-1.075981539277888E-02 VY=-7.079153582502182E-03 VZ= 1.155683093772697E-04
2460029.500000000 = A.D. 2023-Mar-26 00:00:00.0000 TDB 
 X =-9.921423547757361E-01 Y = 1.310739860436422E+00 Z = 5.180743978799625E-02
 VX=-1.062910813276893E-02 VY=-7.254685281689051E-03 VZ= 1.086834071334856E-04
2460031.500000000 = A.D. 2023-Mar-28 00:00:00.0000 TDB 
 X =-1.013267758121868E+00 Y = 1.296056900208774E+00 Z = 5.201791074275183E-02
 VX=-1.049587793534217E-02 VY=-7.427884018774063E-03 VZ= 1.017855036159683E-04
2460033.500000000 = A.D. 2023-Mar-30 00:00:00.0000 TDB 
 X =-1.034124210157709E+00 Y = 1.281029896099388E+00 Z = 5.221457406922369E-02
 VX=-1.036016324637660E-02 VY=-7.598725130616219E-03 VZ= 9.487602924427739E-05
2460035.500000000 = A.D. 2023-Apr-01 00:00:00.0000 TDB 
 X =-1.054706780335688E+00 Y = 1.265663587650636E+00 Z = 5.239740810895485E-02
 VX=-1.022200242538031E-02 VY=-7.767184376743549E-03 VZ= 8.795644018944614E-05
2460037.500000000 = A.D. 2023-Apr-03 00:00:00.0000 TDB 
 X =-1.075010614668789E+00 Y = 1.249962762330415E+00 Z = 5.256639409007637E-02
 VX=-1.008143374821543E-02 VY=-7.933238048441871E-03 VZ= 8.102820583098158E-05
2460039.500000000 = A.D. 2023-Apr-05 00:00:00.0000 TDB 
 X =-1.095030935453672E+00 Y = 1.233932254634045E+00 Z = 5.272151610373310E-02
 VX=-9.938495247364868E-03 VY=-8.096862899051297E-03 VZ= 7.409272824628162E-05
2460041.500000000 = A.D. 2023-Apr-07 00:00:00.0000 TDB 
 X =-1.114763041003423E+00 Y = 1.217576945224806E+00 Z = 5.286276108203970E-02
 VX=-9.793224823514352E-03 VY=-8.258036024779342E-03 VZ= 6.715140233221578E-05
2460043.500000000 = A.D. 2023-Apr-09 00:00:00.0000 TDB 
 X =-1.134202305374744E+00 Y = 1.200901760075645E+00 Z = 5.299011877367132E-02
 VX=-9.645660326823973E-03 VY=-8.416734929254372E-03 VZ= 6.020565816595701E-05
2460045.500000000 = A.D. 2023-Apr-11 00:00:00.0000 TDB 
 X =-1.153344178099264E+00 Y = 1.183911669623131E+00 Z = 5.310358172445461E-02
 VX=-9.495839447769524E-03 VY=-8.572937651479498E-03 VZ= 5.325689789868870E-05
2460047.500000000 = A.D. 2023-Apr-13 00:00:00.0000 TDB 
 X =-1.172184183876926E+00 Y = 1.166611687959759E+00 Z = 5.320314524514336E-02
 VX=-9.343799651192463E-03 VY=-8.726622584657097E-03 VZ= 4.630647194751311E-05
2460049.500000000 = A.D. 2023-Apr-15 00:00:00.0000 TDB 
 X =-1.190717922276899E+00 Y = 1.149006872061855E+00 Z = 5.328880738521959E-02
 VX=-9.189578268708878E-03 VY=-8.877768403292649E-03 VZ= 3.935573362634207E-05
2460051.500000000 = A.D. 2023-Apr-17 00:00:00.0000 TDB 
 X =-1.208941067446634E+00 Y = 1.131102321069446E+00 Z = 5.336056891260777E-02
 VX=-9.033212582171917E-03 VY=-9.026354202228800E-03 VZ= 3.240606987398463E-05
2460053.500000000 = A.D. 2023-Apr-19 00:00:00.0000 TDB 
 X =-1.226849367817682E+00 Y = 1.112903175576853E+00 Z = 5.341843328773036E-02
 VX=-8.874739663623019E-03 VY=-9.172359477214349E-03 VZ= 2.545881915706892E-05
2460055.500000000 = A.D. 2023-Apr-21 00:00:00.0000 TDB 
 X =-1.244438645826834E+00 Y = 1.094414616976235E+00 Z = 5.346240664156925E-02
 VX=-8.714196382881713E-03 VY=-9.315763992473150E-03 VZ= 1.851527725030939E-05
2460057.500000000 = A.D. 2023-Apr-23 00:00:00.0000 TDB 
 X =-1.261704797641933E+00 Y = 1.075641866838055E+00 Z = 5.349249775214542E-02
 VX=-8.551619565569385E-03 VY=-9.456547737775928E-03 VZ= 1.157677926893828E-05
2460059.500000000 = A.D. 2023-Apr-25 00:00:00.0000 TDB 
 X =-1.278643792923768E+00 Y = 1.056590186302903E+00 Z = 5.350871803149063E-02
 VX=-8.387045940581261E-03 VY=-9.594691101023487E-03 VZ= 4.644659349422626E-06
2460061.500000000 = A.D. 2023-Apr-27 00:00:00.0000 TDB 
 X =-1.295251674582517E+00 Y = 1.037264875508239E+00 Z = 5.351108150502401E-02
 VX=-8.220512059426276E-03 VY=-9.730174788177240E-03 VZ=-2.279793383279395E-06
2460063.500000000 = A.D. 2023-Apr-29 00:00:00.0000 TDB 
 X =-1.311524558547128E+00 Y = 1.017671273032561E+00 Z = 5.349960479020253E-02
 VX=-8.052054320509450E-03 VY=-9.862979658327531E-03 VZ=-9.195313099104958E-06
2460065.500000000 = A.D. 2023-May-01 00:00:00.0000 TDB 
 X =-1.327458633565871E+00 Y = 9.978147553822937E-01 Z = 5.347430708584712E-02
 VX=-7.881709128546513E-03 VY=-9.993086843562253E-03 VZ=-1.610058814443573E-05
2460067.500000000 = A.D. 2023-May-03 00:00:00.0000 TDB 
 X =-1.343050161009558E+00 Y = 9.777007364776973E-01 Z = 5.343521015542790E-02
 VX=-7.709512790277214E-03 VY=-1.012047779907427E-02 VZ=-2.299432055328159E-05
2460069.500000000 = A.D. 2023-May-05 00:00:00.0000 TDB 
 X =-1.358295474696028E+00 Y = 9.573346671628347E-01 Z = 5.338233831338079E-02
 VX=-7.535501425083736E-03 VY=-1.024513422426893E-02 VZ=-2.987527283950156E-05
2460071.500000000 = A.D. 2023-May-07 00:00:00.0000 TDB 
 X =-1.373190980715919E+00 Y = 9.367220347553560E-01 Z = 5.331571840727285E-02
 VX=-7.359711121224360E-03 VY=-1.036703792727086E-02 VZ=-3.674218367217724E-05
2460073.500000000 = A.D. 2023-May-09 00:00:00.0000 TDB 
 X =-1.387733157295308E+00 Y = 9.158683625975069E-01 Z = 5.323537980956439E-02
 VX=-7.182177956902803E-03 VY=-1.048617098405503E-02 VZ=-4.359376817969646E-05
2460075.500000000 = A.D. 2023-May-11 00:00:00.0000 TDB 
 X =-1.401918554667843E+00 Y = 8.947792096339636E-01 Z = 5.314135440749422E-02
 VX=-7.002937924235058E-03 VY=-1.060251577348627E-02 VZ=-5.042876776854723E-05
2460077.500000000 = A.D. 2023-May-13 00:00:00.0000 TDB 
 X =-1.415743794948512E+00 Y = 8.734601699979140E-01 Z = 5.303367658533396E-02
 VX=-6.822026873249508E-03 VY=-1.071605478427714E-02 VZ=-5.724596922471694E-05
2460079.500000000 = A.D. 2023-May-15 00:00:00.0000 TDB 
 X =-1.429205572044802E+00 Y = 8.519168726351429E-01 Z = 5.291238321831276E-02
 VX=-6.639480685408853E-03 VY=-1.082677065034412E-02 VZ=-6.404412276340765E-05
2460081.500000000 = A.D. 2023-May-17 00:00:00.0000 TDB 
 X =-1.442300651576381E+00 Y = 8.301549809341223E-01 Z = 5.277751366300482E-02
 VX=-6.455335265590087E-03 VY=-1.093464625038839E-02 VZ=-7.082195690009378E-05
2460083.500000000 = A.D. 2023-May-19 00:00:00.0000 TDB 
 X =-1.455025870819708E+00 Y = 8.081801923586608E-01 Z = 5.262910974982219E-02
 VX=-6.269626395922664E-03 VY=-1.103966469802036E-02 VZ=-7.757825788654097E-05
2460085.500000000 = A.D. 2023-May-21 00:00:00.0000 TDB 
 X =-1.467378138656302E+00 Y = 7.859982381217672E-01 Z = 5.246721577098577E-02
 VX=-6.082389830320279E-03 VY=-1.114180916683845E-02 VZ=-8.431181714704304E-05
2460087.500000000 = A.D. 2023-May-23 00:00:00.0000 TDB 
 X =-1.479354435552258E+00 Y = 7.636148828603827E-01 Z = 5.229187847432159E-02
 VX=-5.893661388877237E-03 VY=-1.124106296319415E-02 VZ=-9.102138817814373E-05
2460089.500000000 = A.D. 2023-May-25 00:00:00.0000 TDB 
 X =-1.490951813565948E+00 Y = 7.410359243285067E-01 Z = 5.210314706235956E-02
 VX=-5.703476913956641E-03 VY=-1.133740966479542E-02 VZ=-9.770572646192725E-05
2460091.500000000 = A.D. 2023-May-27 00:00:00.0000 TDB 
 X =-1.502167396351746E+00 Y = 7.182671930931456E-01 Z = 5.190107317990311E-02
 VX=-5.511872166165209E-03 VY=-1.143083296522410E-02 VZ=-1.043636376087339E-04
2460093.500000000 = A.D. 2023-May-29 00:00:00.0000 TDB 
 X =-1.512998379200741E+00 Y = 6.953145522557982E-01 Z = 5.168571091069205E-02
 VX=-5.318882939225037E-03 VY=-1.152131661140522E-02 VZ=-1.109939186804405E-04
2460095.500000000 = A.D. 2023-May-31 00:00:00.0000 TDB 
 X =-1.523442029097874E+00 Y = 6.721838971909889E-01 Z = 5.145711677422812E-02
 VX=-5.124545165005840E-03 VY=-1.160884451083034E-02 VZ=-1.175953170939676E-04
2460097.500000000 = A.D. 2023-Jun-02 00:00:00.0000 TDB 
 X =-1.533495684805467E+00 Y = 6.488811552691016E-01 Z = 5.121534972358864E-02
 VX=-4.928894759148027E-03 VY=-1.169340078912877E-02 VZ=-1.241666177452363E-04
2460099.500000000 = A.D. 2023-Jun-04 00:00:00.0000 TDB 
 X =-1.543156756957311E+00 Y = 6.254122856124381E-01 Z = 5.096047114025382E-02
 VX=-4.731967631275507E-03 VY=-1.177496964749502E-02 VZ=-1.307066372956302E-04
2460101.500000000 = A.D. 2023-Jun-06 00:00:00.0000 TDB 
 X =-1.552422728172310E+00 Y = 6.017832788542510E-01 Z = 5.069254482869691E-02
 VX=-4.533799810382196E-03 VY=-1.185353530841038E-02 VZ=-1.372141576582015E-04
2460103.500000000 = A.D. 2023-Jun-08 00:00:00.0000 TDB 
 X =-1.561291153211250E+00 Y = 5.780001569063873E-01 Z = 5.041163702216494E-02
 VX=-4.334427458913000E-03 VY=-1.192908221563640E-02 VZ=-1.436879387482982E-04
